{
  "type": "FeatureCollection",
  "features": [
    {
      "type": "Feature",
      "properties": {
        "norad_id": 66488,
        "name": "STARLINK-35515",
        "group": "last-30-days",
        "lat": 31.07546660680921,
        "lon": -76.8919683480423,
        "alt_km": 411.04385117432685,
        "timestamp": "2025-12-09T14:52:24.941190+00:00",
        "meta_object_name": "STARLINK-35515",
        "meta_object_id": "2025-263D",
        "meta_epoch": "2025-12-09T06:00:02.000160",
        "meta_mean_motion": 15.50662606,
        "meta_eccentricity": 0.00014444,
        "meta_inclination": 43.0005,
        "meta_ra_of_asc_node": 145.5658,
        "meta_arg_of_pericenter": 270.9974,
        "meta_mean_anomaly": 313.5016,
        "meta_ephemeris_type": 0,
        "meta_classification_type": "U",
        "meta_norad_cat_id": 66488,
        "meta_element_set_no": 999,
        "meta_rev_at_epoch": 507,
        "meta_bstar": -0.0031341123,
        "meta_mean_motion_dot": -0.00180567,
        "meta_mean_motion_ddot": 0,
        "tle_line1": "1 66488U 25263D   25343.25002315 -.00180567  00000+0 -31341-2 0  9997",
        "tle_line2": "2 66488  43.0005 145.5658 0001444 270.9974 313.5016 15.50662606  5079"
      },
      "geometry": {
        "type": "Point",
        "coordinates": [
          -76.8919683480423,
          31.07546660680921
        ]
      }
    },
    {
      "type": "Feature",
      "properties": {
        "norad_id": 66489,
        "name": "STARLINK-35696",
        "group": "last-30-days",
        "lat": 30.074697463534783,
        "lon": -75.0222057624117,
        "alt_km": 411.33276625085455,
        "timestamp": "2025-12-09T14:52:24.941200+00:00",
        "meta_object_name": "STARLINK-35696",
        "meta_object_id": "2025-263E",
        "meta_epoch": "2025-12-09T06:00:02.000160",
        "meta_mean_motion": 15.50601301,
        "meta_eccentricity": 0.00016476,
        "meta_inclination": 43.0005,
        "meta_ra_of_asc_node": 145.5615,
        "meta_arg_of_pericenter": 275.1388,
        "meta_mean_anomaly": 311.2987,
        "meta_ephemeris_type": 0,
        "meta_classification_type": "U",
        "meta_norad_cat_id": 66489,
        "meta_element_set_no": 999,
        "meta_rev_at_epoch": 507,
        "meta_bstar": -0.0017362972,
        "meta_mean_motion_dot": -0.00100981,
        "meta_mean_motion_ddot": 0,
        "tle_line1": "1 66489U 25263E   25343.25002315 -.00100981  00000+0 -17363-2 0  9998",
        "tle_line2": "2 66489  43.0005 145.5615 0001647 275.1388 311.2987 15.50601301  5071"
      },
      "geometry": {
        "type": "Point",
        "coordinates": [
          -75.0222057624117,
          30.074697463534783
        ]
      }
    },
    {
      "type": "Feature",
      "properties": {
        "norad_id": 66490,
        "name": "STARLINK-35693",
        "group": "last-30-days",
        "lat": 29.02864301764929,
        "lon": -73.15817713898662,
        "alt_km": 411.3948679305622,
        "timestamp": "2025-12-09T14:52:24.941212+00:00",
        "meta_object_name": "STARLINK-35693",
        "meta_object_id": "2025-263F",
        "meta_epoch": "2025-12-09T06:00:02.000160",
        "meta_mean_motion": 15.50654474,
        "meta_eccentricity": 0.00015549,
        "meta_inclination": 43.0006,
        "meta_ra_of_asc_node": 145.5559,
        "meta_arg_of_pericenter": 275.5152,
        "meta_mean_anomaly": 312.8079,
        "meta_ephemeris_type": 0,
        "meta_classification_type": "U",
        "meta_norad_cat_id": 66490,
        "meta_element_set_no": 999,
        "meta_rev_at_epoch": 507,
        "meta_bstar": -0.0025995677,
        "meta_mean_motion_dot": -0.0015036,
        "meta_mean_motion_ddot": 0,
        "tle_line1": "1 66490U 25263F   25343.25002315 -.00150360  00000+0 -25996-2 0  9997",
        "tle_line2": "2 66490  43.0006 145.5559 0001554 275.5152 312.8079 15.50654474  5079"
      },
      "geometry": {
        "type": "Point",
        "coordinates": [
          -73.15817713898662,
          29.02864301764929
        ]
      }
    },
    {
      "type": "Feature",
      "properties": {
        "norad_id": 66491,
        "name": "STARLINK-35663",
        "group": "last-30-days",
        "lat": 26.872366501075735,
        "lon": -69.55749763224378,
        "alt_km": 411.70415379090355,
        "timestamp": "2025-12-09T14:52:24.941223+00:00",
        "meta_object_name": "STARLINK-35663",
        "meta_object_id": "2025-263G",
        "meta_epoch": "2025-12-09T06:00:02.000160",
        "meta_mean_motion": 15.50678656,
        "meta_eccentricity": 0.00015485,
        "meta_inclination": 43.0006,
        "meta_ra_of_asc_node": 145.5463,
        "meta_arg_of_pericenter": 270.3697,
        "meta_mean_anomaly": 321.7997,
        "meta_ephemeris_type": 0,
        "meta_classification_type": "U",
        "meta_norad_cat_id": 66491,
        "meta_element_set_no": 999,
        "meta_rev_at_epoch": 507,
        "meta_bstar": -0.0036739368,
        "meta_mean_motion_dot": -0.00210923,
        "meta_mean_motion_ddot": 0,
        "tle_line1": "1 66491U 25263G   25343.25002315 -.00210923  00000+0 -36739-2 0  9997",
        "tle_line2": "2 66491  43.0006 145.5463 0001548 270.3697 321.7997 15.50678656  5070"
      },
      "geometry": {
        "type": "Point",
        "coordinates": [
          -69.55749763224378,
          26.872366501075735
        ]
      }
    },
    {
      "type": "Feature",
      "properties": {
        "norad_id": 66492,
        "name": "STARLINK-35673",
        "group": "last-30-days",
        "lat": 26.78032945394936,
        "lon": -69.41106769671595,
        "alt_km": 417.9494040404634,
        "timestamp": "2025-12-09T14:52:24.941235+00:00",
        "meta_object_name": "STARLINK-35673",
        "meta_object_id": "2025-263H",
        "meta_epoch": "2025-12-09T06:00:02.000160",
        "meta_mean_motion": 15.50202168,
        "meta_eccentricity": 0.00016054,
        "meta_inclination": 43.0005,
        "meta_ra_of_asc_node": 145.541,
        "meta_arg_of_pericenter": 270.5014,
        "meta_mean_anomaly": 323.5081,
        "meta_ephemeris_type": 0,
        "meta_classification_type": "U",
        "meta_norad_cat_id": 66492,
        "meta_element_set_no": 999,
        "meta_rev_at_epoch": 507,
        "meta_bstar": -0.04110633,
        "meta_mean_motion_dot": -0.02111358,
        "meta_mean_motion_ddot": 0,
        "tle_line1": "1 66492U 25263H   25343.25002315 -.02111358  00000+0 -41106-1 0  9995",
        "tle_line2": "2 66492  43.0005 145.5410 0001605 270.5014 323.5081 15.50202168  5076"
      },
      "geometry": {
        "type": "Point",
        "coordinates": [
          -69.41106769671595,
          26.78032945394936
        ]
      }
    },
    {
      "type": "Feature",
      "properties": {
        "norad_id": 66493,
        "name": "STARLINK-35597",
        "group": "last-30-days",
        "lat": 24.644434224101186,
        "lon": -66.12025534135091,
        "alt_km": 411.81787085795077,
        "timestamp": "2025-12-09T14:52:24.941245+00:00",
        "meta_object_name": "STARLINK-35597",
        "meta_object_id": "2025-263J",
        "meta_epoch": "2025-12-09T06:00:02.000160",
        "meta_mean_motion": 15.50661632,
        "meta_eccentricity": 0.00015238,
        "meta_inclination": 43.0005,
        "meta_ra_of_asc_node": 145.5359,
        "meta_arg_of_pericenter": 260.0622,
        "meta_mean_anomaly": 335.9332,
        "meta_ephemeris_type": 0,
        "meta_classification_type": "U",
        "meta_norad_cat_id": 66493,
        "meta_element_set_no": 999,
        "meta_rev_at_epoch": 507,
        "meta_bstar": -0.0030974449,
        "meta_mean_motion_dot": -0.001785,
        "meta_mean_motion_ddot": 0,
        "tle_line1": "1 66493U 25263J   25343.25002315 -.00178500  00000+0 -30974-2 0  9998",
        "tle_line2": "2 66493  43.0005 145.5359 0001523 260.0622 335.9332 15.50661632  5078"
      },
      "geometry": {
        "type": "Point",
        "coordinates": [
          -66.12025534135091,
          24.644434224101186
        ]
      }
    },
    {
      "type": "Feature",
      "properties": {
        "norad_id": 66494,
        "name": "STARLINK-35689",
        "group": "last-30-days",
        "lat": 27.968565748581216,
        "lon": -71.35043272379718,
        "alt_km": 411.4190415874191,
        "timestamp": "2025-12-09T14:52:24.941267+00:00",
        "meta_object_name": "STARLINK-35689",
        "meta_object_id": "2025-263K",
        "meta_epoch": "2025-12-09T06:00:02.000160",
        "meta_mean_motion": 15.50643165,
        "meta_eccentricity": 0.00015503,
        "meta_inclination": 43.0005,
        "meta_ra_of_asc_node": 145.5511,
        "meta_arg_of_pericenter": 263.7961,
        "meta_mean_anomaly": 326.4558,
        "meta_ephemeris_type": 0,
        "meta_classification_type": "U",
        "meta_norad_cat_id": 66494,
        "meta_element_set_no": 999,
        "meta_rev_at_epoch": 507,
        "meta_bstar": -0.0025765344,
        "meta_mean_motion_dot": -0.00148996,
        "meta_mean_motion_ddot": 0,
        "tle_line1": "1 66494U 25263K   25343.25002315 -.00148996  00000+0 -25765-2 0  9997",
        "tle_line2": "2 66494  43.0005 145.5511 0001550 263.7961 326.4558 15.50643165  5071"
      },
      "geometry": {
        "type": "Point",
        "coordinates": [
          -71.35043272379718,
          27.968565748581216
        ]
      }
    }
  ]
}